[
    {
        "Altitude(m)": 622200.1192375565,
        "Argument of Periapsis(deg)": 0.0,
        "Eccentricity": 0.0,
        "Inclination(deg)": 60.0,
        "Latitude(deg)": -52.16257144858637,
        "Longitude(deg)": -2.6391077346720584,
        "Mean Anomaly(deg)": -65.45450000000001,
        "RAAN(deg)": 145.0,
        "Satellite Name": "Test1 656",
        "Satellite Number": 656,
        "Semi-Major Axis(m)": 6980739.136638005,
        "Time(s)": 0
    },
    {
        "Altitude(m)": 622058.2864925716,
        "Argument of Periapsis(deg)": 0.00010418945913296404,
        "Eccentricity": 0.0,
        "Inclination(deg)": 60.0,
        "Latitude(deg)": -51.799319639599744,
        "Longitude(deg)": -1.8710511139901083,
        "Mean Anomaly(deg)": -64.83439385453815,
        "RAAN(deg)": 144.99957995086027,
        "Satellite Name": "Test1 656",
        "Satellite Number": 656,
        "Semi-Major Axis(m)": 6980739.136638005,
        "Time(s)": 10
    }
]